[{"OBJECT_NAME":"LEMUR-2-PETERG","OBJECT_ID":"2017-042S","EPOCH":"2026-03-09T11:34:35.656032","MEAN_MOTION":15.29611459,"ECCENTRICITY":0.00037,"INCLINATION":97.398,"RA_OF_ASC_NODE":253.6596,"ARG_OF_PERICENTER":341.6938,"MEAN_ANOMALY":18.4169,"EPHEMERIS_TYPE":0,"CLASSIFICATION_TYPE":"U","NORAD_CAT_ID":42841,"ELEMENT_SET_NO":999,"REV_AT_EPOCH":47317,"BSTAR":0.00081076471,"MEAN_MOTION_DOT":0.0002324,"MEAN_MOTION_DDOT":0},{"OBJECT_NAME":"STARLINK-35919","OBJECT_ID":"2025-283L","EPOCH":"2026-03-09T04:03:30.667680","MEAN_MOTION":15.30185332,"ECCENTRICITY":0.00012465,"INCLINATION":53.1608,"RA_OF_ASC_NODE":26.6427,"ARG_OF_PERICENTER":77.0606,"MEAN_ANOMALY":283.0534,"EPHEMERIS_TYPE":0,"CLASSIFICATION_TYPE":"U","NORAD_CAT_ID":66888,"ELEMENT_SET_NO":999,"REV_AT_EPOCH":1576,"BSTAR":0.001416911,"MEAN_MOTION_DOT":0.00041823,"MEAN_MOTION_DDOT":0}]
